[{"OBJECT_NAME":"STARLINK-30938","OBJECT_ID":"2023-178R","EPOCH":"2026-03-09T04:54:22.377888","MEAN_MOTION":15.30191809,"ECCENTRICITY":9.929e-5,"INCLINATION":53.1622,"RA_OF_ASC_NODE":3.5666,"ARG_OF_PERICENTER":108.8928,"MEAN_ANOMALY":251.2181,"EPHEMERIS_TYPE":0,"CLASSIFICATION_TYPE":"U","NORAD_CAT_ID":58389,"ELEMENT_SET_NO":999,"REV_AT_EPOCH":12981,"BSTAR":5.77116e-7,"MEAN_MOTION_DOT":-3.42e-6,"MEAN_MOTION_DDOT":0},{"OBJECT_NAME":"TRANSPORTER-11 OBJECT A","OBJECT_ID":"2024-149A","EPOCH":"2026-03-09T17:54:54.302112","MEAN_MOTION":15.31141332,"ECCENTRICITY":0.00031096,"INCLINATION":97.378,"RA_OF_ASC_NODE":149.0949,"ARG_OF_PERICENTER":191.001,"MEAN_ANOMALY":169.1164,"EPHEMERIS_TYPE":0,"CLASSIFICATION_TYPE":"U","NORAD_CAT_ID":60468,"ELEMENT_SET_NO":999,"REV_AT_EPOCH":8683,"BSTAR":0.00036053677,"MEAN_MOTION_DOT":0.00010774,"MEAN_MOTION_DDOT":0}]
